NORAD_CAT_ID,OBJECT_NAME,OBJECT_TYPE,EPOCH,MEAN_MOTION,ECCENTRICITY,INCLINATION,RA_OF_ASC_NODE,ARG_OF_PERICENTER,MEAN_ANOMALY,BSTAR,MEAN_MOTION_DOT,MEAN_MOTION_DDOT,TLE_LINE0,TLE_LINE1,TLE_LINE2,SEMIMAJOR_AXIS,PERIOD,APOGEE,PERIGEE,DECAYED
52300.0,STARLINK-3769,PAYLOAD,2022-12-26 06:07:46,15.0884654,0.0002504,53.2156,308.9251,24.6314,335.4798,7.1845e-05,8.55e-06,0.0,0 STARLINK-3769,1 52300U 22041AR  22360.25540473  .00000855  00000-0  71845-4 0  9999,2 52300  53.2156 308.9251 0002504  24.6314 335.4798 15.08846540 39184,6917.86,95.437,541.4580000000002,537.993,0.0
52300.0,STARLINK-3769,PAYLOAD,2022-12-26 20:26:15,15.0884783,0.0002762,53.216,306.2492,32.2137,327.9023,-0.00021585,-3.723e-05,0.0,0 STARLINK-3769,1 52300U 22041AR  22360.85156933 -.00003723  00000-0 -21585-3 0  9993,2 52300  53.2160 306.2492 0002762  32.2137 327.9023 15.08847830 39271,6917.856,95.437,541.632,537.811,0.0
52300.0,STARLINK-3769,PAYLOAD,2022-12-27 05:58:33,15.0884355,0.0002988,53.2169,304.4653,27.5152,332.5998,9.4171e-05,1.211e-05,0.0,0 STARLINK-3769,1 52300U 22041AR  22361.24900404  .00001211  00000-0  94171-4 0  9997,2 52300  53.2169 304.4653 0002988  27.5152 332.5998 15.08843550 39338,6917.87,95.437,541.802,537.6669999999998,0.0
52300.0,STARLINK-3769,PAYLOAD,2022-12-27 13:55:29,15.08851203,0.0002792,53.2149,302.9814,27.2775,332.8363,0.00013014,1.784e-05,0.0,0 STARLINK-3769,1 52300U 22041AR  22361.58019768  .00001784  00000-0  13014-3 0  9999,2 52300  53.2149 302.9814 0002792  27.2775 332.8363 15.08851203 39387,6917.846,95.437,541.643,537.78,0.0
52300.0,STARLINK-3769,PAYLOAD,2022-12-27 23:27:48,15.08833686,0.0002708999999999,53.2153,301.1942,26.7867,333.3265,1.6009000000000002e-05,-3.4e-07,0.0,0 STARLINK-3769,1 52300U 22041AR  22361.97764903 -.00000034  00000-0  16009-4 0  9996,2 52300  53.2153 301.1942 0002709  26.7867 333.3265 15.08833686 39448,6917.9,95.438,541.639,537.891,0.0
52300.0,STARLINK-3769,PAYLOAD,2022-12-28 01:03:11,15.08833356,0.0002601,53.2155,300.8969,26.7096,333.403,2.1096e-06,-2.55e-06,0.0,0 STARLINK-3769,1 52300U 22041AR  22362.04388843 -.00000255  00000-0  21096-5 0  9998,2 52300  53.2155 300.8969 0002601  26.7096 333.4030 15.08833356 39456,6917.901,95.438,541.565,537.966,0.0
52300.0,STARLINK-3769,PAYLOAD,2022-12-28 23:18:35,15.0884011,0.0002457,53.2158,296.7318,31.2124,328.9013,7.6866e-06,-1.66e-06,0.0,0 STARLINK-3769,1 52300U 22041AR  22362.97124764 -.00000166  00000-0  76866-5 0  9996,2 52300  53.2158 296.7318 0002457  31.2124 328.9013 15.08840110 39593,6917.88,95.438,541.445,538.045,0.0
52300.0,STARLINK-3769,PAYLOAD,2022-12-29 19:58:38,15.08815295,0.0002449,53.2161,292.8674,29.3423,330.7706,-2.3415e-05,-6.61e-06,0.0,0 STARLINK-3769,1 52300U 22041AR  22363.83239169 -.00000661  00000-0 -23415-4 0  9990,2 52300  53.2161 292.8674 0002449  29.3423 330.7706 15.08815295 39721,6917.956,95.439,541.515,538.127,0.0
52300.0,STARLINK-3769,PAYLOAD,2022-12-30 02:20:11,15.08822667,0.0002859,53.216,291.6795,25.2974,334.8157,-3.1634e-05,-7.92e-06,0.0,0 STARLINK-3769,1 52300U 22041AR  22364.09735075 -.00000792  00000-0 -31634-4 0  9993,2 52300  53.2160 291.6795 0002859  25.2974 334.8157 15.08822667 39762,6917.933000000001,95.439,541.776,537.821,0.0
52300.0,STARLINK-3769,PAYLOAD,2022-12-30 11:52:29,15.08833305,0.0002844,53.2166,289.8942,25.0168,335.0962,7.4064e-05,8.900000000000001e-06,0.0,0 STARLINK-3769,1 52300U 22041AR  22364.49478370  .00000890  00000-0  74064-4 0  9990,2 52300  53.2166 289.8942 0002844  25.0168 335.0962 15.08833305 39823,6917.901,95.438,541.7330000000002,537.798,0.0
52300.0,STARLINK-3769,PAYLOAD,2022-12-31 03:46:18,15.0885547,0.0002955,53.216,286.9214,26.7117,333.4027,0.00039878,6.067e-05,0.0,0 STARLINK-3769,1 52300U 22041AR  22365.15716240  .00006067  00000-0  39878-3 0  9990,2 52300  53.2160 286.9214 0002955  26.7117 333.4027 15.08855470 39924,6917.833000000001,95.437,541.742,537.654,0.0
52300.0,STARLINK-3769,PAYLOAD,2022-12-31 11:43:15,15.08857002,0.0003,53.2146,285.4347,29.2841,330.8319,0.00050088,7.696e-05,0.0,0 STARLINK-3769,1 52300U 22041AR  22365.48837030  .00007696  00000-0  50088-3 0  9992,2 52300  53.2146 285.4347 0003000  29.2841 330.8319 15.08857002 39976,6917.828,95.436,541.769,537.618,0.0
52300.0,STARLINK-3769,PAYLOAD,2023-01-01 03:37:06,15.08840271,0.0002897,53.2152,282.4598,26.8288,333.2854,2.0894e-05,4.4e-07,0.0,0 STARLINK-3769,1 52300U 22041AR  23001.15077229  .00000044  00000-0  20894-4 0  9993,2 52300  53.2152 282.4598 0002897  26.8288 333.2854 15.08840271 40073,6917.88,95.438,541.749,537.74,0.0
52300.0,STARLINK-3769,PAYLOAD,2023-01-01 11:34:03,15.08826709,0.0002852,53.2158,280.9731,28.2776,331.8371,-0.0002044999999999,-3.541e-05,0.0,0 STARLINK-3769,1 52300U 22041AR  23001.48198035 -.00003541  00000-0 -20450-3 0  9992,2 52300  53.2158 280.9731 0002852  28.2776 331.8371 15.08826709 40124,6917.920999999999,95.438,541.759,537.813,0.0
52300.0,STARLINK-3769,PAYLOAD,2023-01-02 05:03:17,15.08834586,0.0003008,53.2159,277.7002,29.3937,330.7224,-0.00027048,-4.59e-05,0.0,0 STARLINK-3769,1 52300U 22041AR  23002.21061963 -.00004590  00000-0 -27048-3 0  9998,2 52300  53.2159 277.7002 0003008  29.3937 330.7224 15.08834586 40234,6917.897,95.438,541.8430000000002,537.681,0.0
52300.0,STARLINK-3769,PAYLOAD,2023-01-02 11:24:50,15.08836366,0.0002812,53.215,276.5128,28.3733,331.7412,1.7746e-05,-6e-08,0.0,0 STARLINK-3769,1 52300U 22041AR  23002.47557921 -.00000006  00000-0  17746-4 0  9992,2 52300  53.2150 276.5128 0002812  28.3733 331.7412 15.08836366 40278,6917.891,95.438,541.702,537.811,0.0
52300.0,STARLINK-3769,PAYLOAD,2023-01-02 20:57:08,15.08838367,0.0002815,53.2146,274.7284,26.033,334.0803,0.00022164,3.241e-05,0.0,0 STARLINK-3769,1 52300U 22041AR  23002.87302056  .00003241  00000-0  22164-3 0  9995,2 52300  53.2146 274.7284 0002815  26.0330 334.0803 15.08838367 40337,6917.885,95.438,541.698,537.803,0.0
52300.0,STARLINK-3769,PAYLOAD,2023-01-03 03:18:41,15.08833445,0.000276,53.215,273.5395,27.4848,332.629,0.00020658,3e-05,0.0,0 STARLINK-3769,1 52300U 22041AR  23003.13798439  .00003000  00000-0  20658-3 0  9998,2 52300  53.2150 273.5395 0002760  27.4848 332.6290 15.08833445 40370,6917.9,95.438,541.675,537.856,0.0
52300.0,STARLINK-3769,PAYLOAD,2023-01-03 12:51:00,15.08838205,0.0002947,53.2159,271.7567,25.1957,334.9178,0.00029854,4.466e-05,0.0,0 STARLINK-3769,1 52300U 22041AR  23003.53542499  .00004466  00000-0  29854-3 0  9999,2 52300  53.2159 271.7567 0002947  25.1957 334.9178 15.08838205 40439,6917.886,95.438,541.79,537.712,0.0
52300.0,STARLINK-3769,PAYLOAD,2023-01-03 23:58:43,15.08830582,0.0003118,53.2159,269.6758,23.4118,336.7016,0.00013972,1.935e-05,0.0,0 STARLINK-3769,1 52300U 22041AR  23003.99911224  .00001935  00000-0  13972-3 0  9997,2 52300  53.2159 269.6758 0003118  23.4118 336.7016 15.08830582 40507,6917.909000000002,95.438,541.931,537.617,0.0
52300.0,STARLINK-3769,PAYLOAD,2023-01-04 11:06:25,15.08834813,0.0003272,53.216,267.5943,23.4326,336.6815,0.0001424,1.978e-05,0.0,0 STARLINK-3769,1 52300U 22041AR  23004.46279282  .00001978  00000-0  14240-3 0  9997,2 52300  53.2160 267.5943 0003272  23.4326 336.6815 15.08834813 40578,6917.896,95.438,542.025,537.498,0.0
52300.0,STARLINK-3769,PAYLOAD,2023-01-05 04:35:37,15.08867091,0.0002907,53.215,264.3208,25.9187,334.195,0.00039514,6.011e-05,0.0,0 STARLINK-3769,1 52300U 22041AR  23005.19141188  .00006011  00000-0  39514-3 0  9995,2 52300  53.2150 264.3208 0002907  25.9187 334.1950 15.08867091 40681,6917.7980000000025,95.436,541.674,537.6519999999998,0.0
52300.0,STARLINK-3769,PAYLOAD,2023-01-06 20:20:18,15.08822617,0.0003232,53.2148,256.8864,27.0193,333.0967,-0.00034534,-5.779e-05,0.0,0 STARLINK-3769,1 52300U 22041AR  23006.84743085 -.00005779  00000-0 -34534-3 0  9991,2 52300  53.2148 256.8864 0003232  27.0193 333.0967 15.08822617 40933,6917.934,95.439,542.034,537.563,0.0
52300.0,STARLINK-3769,PAYLOAD,2023-01-07 02:41:50,15.08828166,0.0003001,53.2146,255.6965,27.0459,333.0689,-0.00029419,-4.967e-05,0.0,0 STARLINK-3769,1 52300U 22041AR  23007.11238891 -.00004967  00000-0 -29419-3 0  9990,2 52300  53.2146 255.6965 0003001  27.0459 333.0689 15.08828166 40979,6917.917,95.438,541.8580000000002,537.705,0.0
52300.0,STARLINK-3769,PAYLOAD,2023-01-07 18:35:42,15.0882378,0.0003029,53.2144,252.723,23.1553,336.9575,2.9768e-05,1.85e-06,0.0,0 STARLINK-3769,1 52300U 22041AR  23007.77479592  .00000185  00000-0  29768-4 0  9991,2 52300  53.2144 252.7230 0003029  23.1553 336.9575 15.08823780 41077,6917.93,95.439,541.89,537.7,0.0
52300.0,STARLINK-3769,PAYLOAD,2023-01-08 10:29:34,15.08832535,0.000288,53.2136,249.7496,26.5398,333.5741,0.00038088,5.778e-05,0.0,0 STARLINK-3769,1 52300U 22041AR  23008.43720169  .00005778  00000-0  38088-3 0  9991,2 52300  53.2136 249.7496 0002880  26.5398 333.5741 15.08832535 41173,6917.903,95.438,541.761,537.776,0.0
52300.0,STARLINK-3769,PAYLOAD,2023-01-08 12:04:57,15.0883773,0.0002833999999999,53.2135,249.4523,26.595,333.5187,0.0005124,7.876e-05,0.0,0 STARLINK-3769,1 52300U 22041AR  23008.50344125  .00007876  00000-0  51240-3 0  9999,2 52300  53.2135 249.4523 0002834  26.5950 333.5187 15.08837730 41180,6917.887,95.438,541.7130000000002,537.7919999999998,0.0
52300.0,STARLINK-3769,PAYLOAD,2023-01-08 18:26:29,15.08851929,0.0002796,53.2132,248.2632,27.0351,333.0787,0.00099722,0.00015624,0.0,0 STARLINK-3769,1 52300U 22041AR  23008.76839976  .00015624  00000-0  99722-3 0  9997,2 52300  53.2132 248.2632 0002796  27.0351 333.0787 15.08851929 41225,6917.844,95.437,541.643,537.775,0.0
52300.0,STARLINK-3769,PAYLOAD,2023-01-09 00:48:02,15.08860959,0.0002847,53.213,247.0737,26.851,333.2629,0.0011294,0.00017743,0.0,0 STARLINK-3769,1 52300U 22041AR  23009.03335717  .00017743  00000-0  11294-2 0  9993,2 52300  53.2130 247.0737 0002847  26.8510 333.2629 15.08860959 41261,6917.816,95.436,541.651,537.712,0.0
